NORAD_CAT_ID,OBJECT_NAME,OBJECT_TYPE,EPOCH,MEAN_MOTION,ECCENTRICITY,INCLINATION,RA_OF_ASC_NODE,ARG_OF_PERICENTER,MEAN_ANOMALY,BSTAR,MEAN_MOTION_DOT,MEAN_MOTION_DDOT,TLE_LINE0,TLE_LINE1,TLE_LINE2,SEMIMAJOR_AXIS,PERIOD,APOGEE,PERIGEE,DECAYED
52641.0,STARLINK-3991,PAYLOAD,2023-05-23 10:30:55,15.08836248,0.0001067,53.2158,163.6971,91.5985,268.513,1.9455e-05,2.2e-07,0.0,0 STARLINK-3991,1 52641U 22052AV  23143.43814637  .00000022  00000-0  19455-4 0  9990,2 52641  53.2158 163.6971 0001067  91.5985 268.5130 15.08836248 57336,6917.892,95.438,540.495,539.019,0.0
52641.0,STARLINK-3991,PAYLOAD,2023-05-24 10:21:42,15.08837936,9.37e-05,53.215,159.2354,82.1671,277.9428,0.00014658,2.046e-05,0.0,0 STARLINK-3991,1 52641U 22052AV  23144.43174465  .00002046  00000-0  14658-3 0  9996,2 52641  53.2150 159.2354 0000937  82.1671 277.9428 15.08837936 57112,6917.887,95.438,540.4,539.103,0.0
52641.0,STARLINK-3991,PAYLOAD,2023-05-26 05:17:07,15.08843763,0.0001014,53.2154,151.2069,77.2051,282.9054,2.729e-05,1.47e-06,0.0,0 STARLINK-3991,1 52641U 22052AV  23146.22022251  .00000147  00000-0  27290-4 0  9997,2 52641  53.2154 151.2069 0001014  77.2051 282.9054 15.08843763 57751,6917.869,95.437,540.435,539.032,0.0
52641.0,STARLINK-3991,PAYLOAD,2023-05-26 06:52:30,15.08844051,0.0001017,53.2154,150.9096,76.3916,283.7189,2.7699e-05,1.53e-06,0.0,0 STARLINK-3991,1 52641U 22052AV  23146.28646210  .00000153  00000-0  27699-4 0  9990,2 52641  53.2154 150.9096 0001017  76.3916 283.7189 15.08844051 57399,6917.868,95.437,540.437,539.029,0.0
52641.0,STARLINK-3991,PAYLOAD,2023-05-27 05:07:54,15.08837883,0.000103,53.2154,146.7462,80.8995,279.2113,-1.2099e-05,-4.8e-06,0.0,0 STARLINK-3991,1 52641U 22052AV  23147.21382572 -.00000480  00000-0 -12099-4 0  9995,2 52641  53.2154 146.7462 0001030  80.8995 279.2113 15.08837883 57900,6917.887,95.438,540.464,539.039,0.0
52641.0,STARLINK-3991,PAYLOAD,2023-05-27 06:43:17,15.08838216,0.0001028,53.2154,146.449,82.4367,277.6741,-7.9189e-06,-4.14e-06,0.0,0 STARLINK-3991,1 52641U 22052AV  23147.28006528 -.00000414  00000-0 -79189-5 0  9997,2 52641  53.2154 146.4490 0001028  82.4367 277.6741 15.08838216 57546,6917.886,95.438,540.462,539.04,0.0
52641.0,STARLINK-3991,PAYLOAD,2023-05-28 06:34:04,15.08841472,0.0001027,53.2154,141.9882,80.6114,279.4994,5.3169e-05,5.59e-06,0.0,0 STARLINK-3991,1 52641U 22052AV  23148.27366163  .00000559  00000-0  53169-4 0  9998,2 52641  53.2154 141.9882 0001027  80.6114 279.4994 15.08841472 58066,6917.876,95.437,540.451,539.03,0.0
52641.0,STARLINK-3991,PAYLOAD,2023-05-28 16:06:23,15.0883753,0.0001012,53.2155,140.2043,78.9239,281.1867,3.6845e-05,2.99e-06,0.0,0 STARLINK-3991,1 52641U 22052AV  23148.67110492  .00000299  00000-0  36845-4 0  9997,2 52641  53.2155 140.2043 0001012  78.9239 281.1867 15.08837530 57754,6917.888,95.438,540.453,539.053,0.0
52641.0,STARLINK-3991,PAYLOAD,2023-05-29 04:49:28,15.08835479,0.0001061,53.2156,137.8256,80.5305,279.5807,3.9365e-05,3.39e-06,0.0,0 STARLINK-3991,1 52641U 22052AV  23149.20102747  .00000339  00000-0  39365-4 0  9996,2 52641  53.2156 137.8256 0001061  80.5305 279.5807 15.08835479 58206,6917.894,95.438,540.493,539.025,0.0
52641.0,STARLINK-3991,PAYLOAD,2023-05-29 06:24:51,15.08835234,0.0001064,53.2156,137.5279,80.3512,279.76,3.6957e-05,3e-06,0.0,0 STARLINK-3991,1 52641U 22052AV  23149.26726784  .00000300  00000-0  36957-4 0  9997,2 52641  53.2156 137.5279 0001064  80.3512 279.7600 15.08835234 57840,6917.895,95.438,540.496,539.024,0.0
52641.0,STARLINK-3991,PAYLOAD,2023-05-30 07:51:02,15.0883947,0.0001101,53.2157,132.7702,80.6304,279.4812,2.0315e-05,3.6e-07,0.0,0 STARLINK-3991,1 52641U 22052AV  23150.32710763  .00000036  00000-0  20315-4 0  9993,2 52641  53.2157 132.7702 0001101  80.6304 279.4812 15.08839470 58370,6917.882,95.438,540.509,538.985,0.0
52641.0,STARLINK-3991,PAYLOAD,2023-05-31 07:41:48,15.08842218,0.0001125,53.2156,128.3096,89.5739,270.5382,8.9727e-05,1.141e-05,0.0,0 STARLINK-3991,1 52641U 22052AV  23151.32070477  .00001141  00000-0  89727-4 0  9995,2 52641  53.2156 128.3096 0001125  89.5739 270.5382 15.08842218 58156,6917.874,95.437,540.517,538.96,0.0
52641.0,STARLINK-3991,PAYLOAD,2023-05-31 15:38:44,15.08836884,0.0001131,53.2157,126.822,88.1842,271.9279,4.3158e-05,3.99e-06,0.0,0 STARLINK-3991,1 52641U 22052AV  23151.65190960  .00000399  00000-0  43158-4 0  9993,2 52641  53.2157 126.8220 0001131  88.1842 271.9279 15.08836884 58574,6917.89,95.438,540.537,538.972,0.0
52641.0,STARLINK-3991,PAYLOAD,2023-06-01 07:32:36,15.08840058,0.0001204,53.2157,123.8462,92.7745,267.3385,5.0268e-05,5.12e-06,0.0,0 STARLINK-3991,1 52641U 22052AV  23152.31430844  .00000512  00000-0  50268-4 0  9992,2 52641  53.2157 123.8462 0001204  92.7745 267.3385 15.08840058 58309,6917.88,95.438,540.578,538.912,0.0
52641.0,STARLINK-3991,PAYLOAD,2023-06-02 02:37:14,15.08838963,0.0001255,53.2155,120.2775,93.3632,266.7504,1.3149e-06,-2.67e-06,0.0,0 STARLINK-3991,1 52641U 22052AV  23153.10919175 -.00000267  00000-0  13149-5 0  9995,2 52641  53.2155 120.2775 0001255  93.3632 266.7504 15.08838963 58794,6917.884,95.438,540.617,538.88,0.0
52641.0,STARLINK-3991,PAYLOAD,2023-06-02 04:12:38,15.08763416,0.0001643,53.2158,119.9809,95.5379,264.5801,0.0009988,0.0001561,0.0,0 STARLINK-3991,1 52641U 22052AV  23153.17544796  .00015610  00000-0  99880-3 0  9996,2 52641  53.2158 119.9809 0001643  95.5379 264.5801 15.08763416 58801,6918.114,95.442,541.116,538.843,0.0
52641.0,STARLINK-3991,PAYLOAD,2023-06-02 15:20:19,15.0884395,0.000131,53.2159,117.8997,91.0677,269.0465,-5.6904e-06,-3.78e-06,0.0,0 STARLINK-3991,1 52641U 22052AV  23153.63910912 -.00000378  00000-0 -56904-5 0  9993,2 52641  53.2159 117.8997 0001310  91.0677 269.0465 15.08843950 58875,6917.868,95.437,540.64,538.827,0.0
52641.0,STARLINK-3991,PAYLOAD,2023-06-03 07:14:10,15.08841554,0.0001341,53.216,114.9259,91.8558,268.2588,5.8613e-05,6.45e-06,0.0,0 STARLINK-3991,1 52641U 22052AV  23154.30150941  .00000645  00000-0  58613-4 0  9999,2 52641  53.2160 114.9259 0001341  91.8558 268.2588 15.08841554 58602,6917.876,95.437,540.668,538.813,0.0
52641.0,STARLINK-3991,PAYLOAD,2023-06-03 21:32:39,15.08835282,0.0001406,53.2163,112.2491,93.8942,266.2211,8.9895e-06,-1.45e-06,0.0,0 STARLINK-3991,1 52641U 22052AV  23154.89767595 -.00000145  00000-0  89895-5 0  9995,2 52641  53.2163 112.2491 0001406  93.8942 266.2211 15.08835282 58696,6917.895,95.438,540.732,538.787,0.0
52641.0,STARLINK-3991,PAYLOAD,2023-06-04 02:18:48,15.08856468,0.0001405,53.2165,111.3565,90.1984,269.9169,-0.0002396,-4.101e-05,0.0,0 STARLINK-3991,1 52641U 22052AV  23155.09638899 -.00004101  00000-0 -23960-3 0  9998,2 52641  53.2165 111.3565 0001405  90.1984 269.9169 15.08856468 59091,6917.83,95.437,540.667,538.723,0.0
52641.0,STARLINK-3991,PAYLOAD,2023-06-04 03:54:11,15.08839836,0.0001221,53.2168,111.0604,89.6895,270.4237,3.0069e-05,1.91e-06,0.0,0 STARLINK-3991,1 52641U 22052AV  23155.16263302  .00000191  00000-0  30069-4 0  9991,2 52641  53.2168 111.0604 0001221  89.6895 270.4237 15.08839836 59100,6917.881,95.438,540.591,538.901,0.0
52641.0,STARLINK-3991,PAYLOAD,2023-06-04 21:23:26,15.08834048,0.0001188,53.2166,107.7897,89.9816,270.1312,6.1921e-05,6.98e-06,0.0,0 STARLINK-3991,1 52641U 22052AV  23155.89127592  .00000698  00000-0  61921-4 0  9994,2 52641  53.2166 107.7897 0001188  89.9816 270.1312 15.08834048 58843,6917.899,95.438,540.585,538.942,0.0
52641.0,STARLINK-3991,PAYLOAD,2023-06-05 06:55:44,15.08845337,0.0001158,53.2165,106.0059,88.2697,271.8427,7.444e-05,8.97e-06,0.0,0 STARLINK-3991,1 52641U 22052AV  23156.28870820  .00000897  00000-0  74440-4 0  9998,2 52641  53.2165 106.0059 0001158  88.2697 271.8427 15.08845337 59276,6917.864,95.437,540.53,538.928,0.0
52641.0,STARLINK-3991,PAYLOAD,2023-06-05 13:17:17,15.08842971,0.000111,53.2159,104.8183,88.6265,271.4854,1.7841e-05,-4e-08,0.0,0 STARLINK-3991,1 52641U 22052AV  23156.55367136 -.00000004  00000-0  17841-4 0  9992,2 52641  53.2159 104.8183 0001110  88.6265 271.4854 15.08842971 58940,6917.871,95.437,540.504,538.968,0.0
52641.0,STARLINK-3991,PAYLOAD,2023-06-06 02:00:23,15.08832605,0.0001162,53.2161,102.4379,90.5683,269.5443,-4.0604e-06,-3.52e-06,0.0,0 STARLINK-3991,1 52641U 22052AV  23157.08360057 -.00000352  00000-0 -40604-5 0  9997,2 52641  53.2161 102.4379 0001162  90.5683 269.5443 15.08832605 59392,6917.903,95.438,540.572,538.964,0.0
52641.0,STARLINK-3991,PAYLOAD,2023-06-06 14:43:28,15.08834659,0.0001173,53.2161,100.059,89.5313,270.5814,2.3131e-05,8e-07,0.0,0 STARLINK-3991,1 52641U 22052AV  23157.61352018  .00000080  00000-0  23131-4 0  9995,2 52641  53.2161 100.0590 0001173  89.5313 270.5814 15.08834659 59105,6917.897,95.438,540.573,538.95,0.0
52641.0,STARLINK-3991,PAYLOAD,2023-06-07 05:01:56,15.08839308,0.0001205,53.2162,97.3839,92.5482,267.5648,3.5619e-06,-2.31e-06,0.0,0 STARLINK-3991,1 52641U 22052AV  23158.20967946 -.00000231  00000-0  35619-5 0  9997,2 52641  53.2162  97.3839 0001205  92.5482 267.5648 15.08839308 59564,6917.883,95.438,540.581,538.914,0.0
52641.0,STARLINK-3991,PAYLOAD,2023-06-07 20:55:47,15.0883274,0.0001293,53.2163,94.4093,87.9486,272.1655,6.6538e-05,7.71e-06,0.0,0 STARLINK-3991,1 52641U 22052AV  23158.87208318  .00000771  00000-0  66538-4 0  9992,2 52641  53.2163  94.4093 0001293  87.9486 272.1655 15.08832740 59297,6917.903,95.438,540.662,538.873,0.0
52641.0,STARLINK-3991,PAYLOAD,2023-06-08 03:17:20,15.08837885,0.0001295,53.2164,93.2198,88.3605,271.7535,5.7449e-05,6.26e-06,0.0,0 STARLINK-3991,1 52641U 22052AV  23159.13704136  .00000626  00000-0  57449-4 0  9991,2 52641  53.2164  93.2198 0001295  88.3605 271.7535 15.08837885 59333,6917.887,95.438,540.648,538.856,0.0
52641.0,STARLINK-3991,PAYLOAD,2023-06-08 19:11:11,15.0883958,0.0001344,53.2166,90.246,87.7447,272.3699,7.823e-05,9.57e-06,0.0,0 STARLINK-3991,1 52641U 22052AV  23159.79944050  .00000957  00000-0  78230-4 0  9992,2 52641  53.2166  90.2460 0001344  87.7447 272.3699 15.08839580 59800,6917.882,95.438,540.676,538.817,0.0
